COSMOS 2251 DEB         
1 36532U 93036BCS 17340.32365951  .00000989  00000-0  15408-3 0  9996
2 36532  73.9943 316.4987 0064561 171.0176 259.0074 14.73080614433583
